0 IRIDIUM 33 DEB
1 34356U 97051EY  13281.82025188  .00011003  00000-0  28549-2 0  4330
2 34356 086.3908 128.5052 0041451 303.8611 185.3737 14.49148152242592
0 IRIDIUM 33 DEB
1 34356U 97051EY  13282.35716542  .00018798  00000-0  48727-2 0  4349
2 34356 086.3907 128.2749 0041331 302.0367 106.4590 14.49178010242673
0 IRIDIUM 33 DEB
1 34356U 97051EY  13282.78608417  .00014178  00000-0  36757-2 0  4356
2 34356 086.3908 128.0910 0041250 300.5657 184.1904 14.49188904242739
0 IRIDIUM 33 DEB
1 34356U 97051EY  13283.79782541  .00013814  00000-0  35917-2 0  4363
2 34356 086.3910 127.6557 0041258 297.1801 062.5687 14.49211716242885
0 IRIDIUM 33 DEB
1 34356U 97051EY  13286.30778128  .00012411  00000-0  32136-2 0  4383
2 34356 086.3903 126.5807 0040646 288.4076 198.0539 14.49266029243249
0 IRIDIUM 33 DEB
1 34356U 97051EY  13287.34221218  .00014651  00000-0  37919-2 0  4394
2 34356 086.3900 126.1368 0040514 284.8301 195.2262 14.49288566243397
0 IRIDIUM 33 DEB
1 34356U 97051EY  13288.29747959  .00022235  00000-0  57466-2 0  4402
2 34356 086.3896 125.7270 0040442 281.5090 139.4759 14.49326060243536
0 IRIDIUM 33 DEB
1 34356U 97051EY  13289.33129102  .00019533  00000-0  50464-2 0  4411
2 34356 086.3892 125.2833 0040289 277.9335 133.6632 14.49358926243680
0 IRIDIUM 33 DEB
1 34356U 97051EY  13290.72768698  .00020738  00000-0  53528-2 0  4429
2 34356 086.3889 124.6841 0040194 273.0435 219.9702 14.49400454243883
0 IRIDIUM 33 DEB
1 34356U 97051EY  13291.76137139  .00017789  00000-0  45900-2 0  4432
2 34356 086.3888 124.2404 0040071 269.4475 213.7864 14.49431223244037
0 IRIDIUM 33 DEB
1 34356U 97051EY  13292.79812227  .00017731  00000-0  45722-2 0  4444
2 34356 086.3889 123.7953 0040016 265.8598 223.6997 14.49462305244184
0 IRIDIUM 33 DEB
1 34356U 97051EY  13294.03910769  .00018895  00000-0  48684-2 0  4456
2 34356 086.3891 123.2627 0039996 261.4959 219.5554 14.49498217244362
0 IRIDIUM 33 DEB
1 34356U 97051EY  13295.07570618  .00019858  00000-0  51129-2 0  4465
2 34356 086.3894 122.8177 0039932 257.9378 228.8954 14.49528196244519
